[{"OBJECT_NAME":"QIANFAN-86","OBJECT_ID":"2025-046P","EPOCH":"2026-03-15T06:48:28.076256","MEAN_MOTION":13.51004288,"ECCENTRICITY":0.00095727,"INCLINATION":88.9745,"RA_OF_ASC_NODE":310.2251,"ARG_OF_PERICENTER":218.7182,"MEAN_ANOMALY":141.3284,"EPHEMERIS_TYPE":0,"CLASSIFICATION_TYPE":"U","NORAD_CAT_ID":63172,"ELEMENT_SET_NO":999,"REV_AT_EPOCH":6004,"BSTAR":0.00018540853,"MEAN_MOTION_DOT":1.32e-6,"MEAN_MOTION_DDOT":0},{"OBJECT_NAME":"QIANFAN-87","OBJECT_ID":"2025-046Q","EPOCH":"2026-03-15T06:07:01.498944","MEAN_MOTION":13.51012781,"ECCENTRICITY":0.00103515,"INCLINATION":88.9742,"RA_OF_ASC_NODE":310.3361,"ARG_OF_PERICENTER":213.5998,"MEAN_ANOMALY":146.4498,"EPHEMERIS_TYPE":0,"CLASSIFICATION_TYPE":"U","NORAD_CAT_ID":63173,"ELEMENT_SET_NO":999,"REV_AT_EPOCH":5997,"BSTAR":0.00019048856,"MEAN_MOTION_DOT":1.35e-6,"MEAN_MOTION_DDOT":0},{"OBJECT_NAME":"QIANFAN-88","OBJECT_ID":"2025-046R","EPOCH":"2026-03-15T06:30:38.975616","MEAN_MOTION":13.51000926,"ECCENTRICITY":0.00105775,"INCLINATION":88.9744,"RA_OF_ASC_NODE":310.2913,"ARG_OF_PERICENTER":223.1043,"MEAN_ANOMALY":136.9281,"EPHEMERIS_TYPE":0,"CLASSIFICATION_TYPE":"U","NORAD_CAT_ID":63174,"ELEMENT_SET_NO":999,"REV_AT_EPOCH":6000,"BSTAR":0.00019479996,"MEAN_MOTION_DOT":1.38e-6,"MEAN_MOTION_DDOT":0},{"OBJECT_NAME":"QIANFAN-89","OBJECT_ID":"2025-046S","EPOCH":"2026-03-15T05:37:27.043392","MEAN_MOTION":13.51011413,"ECCENTRICITY":0.00152382,"INCLINATION":88.9745,"RA_OF_ASC_NODE":310.4843,"ARG_OF_PERICENTER":214.1817,"MEAN_ANOMALY":145.8354,"EPHEMERIS_TYPE":0,"CLASSIFICATION_TYPE":"U","NORAD_CAT_ID":63175,"ELEMENT_SET_NO":999,"REV_AT_EPOCH":5989,"BSTAR":0.0001960811,"MEAN_MOTION_DOT":1.39e-6,"MEAN_MOTION_DDOT":0},{"OBJECT_NAME":"QIANFAN-90","OBJECT_ID":"2025-046T","EPOCH":"2026-03-15T06:18:58.188672","MEAN_MOTION":13.51011719,"ECCENTRICITY":0.00122226,"INCLINATION":88.9744,"RA_OF_ASC_NODE":310.4538,"ARG_OF_PERICENTER":211.3013,"MEAN_ANOMALY":148.7412,"EPHEMERIS_TYPE":0,"CLASSIFICATION_TYPE":"U","NORAD_CAT_ID":63176,"ELEMENT_SET_NO":999,"REV_AT_EPOCH":5991,"BSTAR":0.00021564694,"MEAN_MOTION_DOT":1.51e-6,"MEAN_MOTION_DDOT":0},{"OBJECT_NAME":"QIANFAN-91","OBJECT_ID":"2025-233A","EPOCH":"2026-03-15T05:19:13.111392","MEAN_MOTION":13.51005235,"ECCENTRICITY":0.00021026,"INCLINATION":88.9945,"RA_OF_ASC_NODE":52.6847,"ARG_OF_PERICENTER":91.2525,"MEAN_ANOMALY":268.8867,"EPHEMERIS_TYPE":0,"CLASSIFICATION_TYPE":"U","NORAD_CAT_ID":66033,"ELEMENT_SET_NO":999,"REV_AT_EPOCH":2049,"BSTAR":7.7266259e-5,"MEAN_MOTION_DOT":6.2e-7,"MEAN_MOTION_DDOT":0},{"OBJECT_NAME":"QIANFAN-92","OBJECT_ID":"2025-233B","EPOCH":"2026-03-15T05:30:57.906432","MEAN_MOTION":13.51006428,"ECCENTRICITY":0.00020072,"INCLINATION":88.9929,"RA_OF_ASC_NODE":52.671,"ARG_OF_PERICENTER":85.6081,"MEAN_ANOMALY":274.53,"EPHEMERIS_TYPE":0,"CLASSIFICATION_TYPE":"U","NORAD_CAT_ID":66034,"ELEMENT_SET_NO":999,"REV_AT_EPOCH":2049,"BSTAR":5.554951e-5,"MEAN_MOTION_DOT":4.8e-7,"MEAN_MOTION_DDOT":0},{"OBJECT_NAME":"QIANFAN-93","OBJECT_ID":"2025-233C","EPOCH":"2026-03-15T05:42:49.785408","MEAN_MOTION":13.51005637,"ECCENTRICITY":0.00020538,"INCLINATION":88.9956,"RA_OF_ASC_NODE":52.6966,"ARG_OF_PERICENTER":89.8317,"MEAN_ANOMALY":270.307,"EPHEMERIS_TYPE":0,"CLASSIFICATION_TYPE":"U","NORAD_CAT_ID":66035,"ELEMENT_SET_NO":999,"REV_AT_EPOCH":2049,"BSTAR":5.0338566e-5,"MEAN_MOTION_DOT":4.5e-7,"MEAN_MOTION_DDOT":0},{"OBJECT_NAME":"QIANFAN-94","OBJECT_ID":"2025-233D","EPOCH":"2026-03-15T05:24:57.587328","MEAN_MOTION":13.50992559,"ECCENTRICITY":0.0002138,"INCLINATION":88.9952,"RA_OF_ASC_NODE":52.6044,"ARG_OF_PERICENTER":86.0814,"MEAN_ANOMALY":274.0582,"EPHEMERIS_TYPE":0,"CLASSIFICATION_TYPE":"U","NORAD_CAT_ID":66036,"ELEMENT_SET_NO":999,"REV_AT_EPOCH":2054,"BSTAR":6.2433328e-5,"MEAN_MOTION_DOT":5.2e-7,"MEAN_MOTION_DDOT":0},{"OBJECT_NAME":"QIANFAN-95","OBJECT_ID":"2025-233E","EPOCH":"2026-03-15T05:36:36.489024","MEAN_MOTION":13.51015984,"ECCENTRICITY":0.0002229,"INCLINATION":88.995,"RA_OF_ASC_NODE":52.1496,"ARG_OF_PERICENTER":90.3455,"MEAN_ANOMALY":269.7951,"EPHEMERIS_TYPE":0,"CLASSIFICATION_TYPE":"U","NORAD_CAT_ID":66037,"ELEMENT_SET_NO":999,"REV_AT_EPOCH":2079,"BSTAR":5.2255849e-5,"MEAN_MOTION_DOT":4.6e-7,"MEAN_MOTION_DDOT":0},{"OBJECT_NAME":"QIANFAN-96","OBJECT_ID":"2025-233F","EPOCH":"2026-03-15T06:12:31.370688","MEAN_MOTION":13.51005343,"ECCENTRICITY":0.00021381,"INCLINATION":88.9947,"RA_OF_ASC_NODE":52.6927,"ARG_OF_PERICENTER":92.8486,"MEAN_ANOMALY":267.291,"EPHEMERIS_TYPE":0,"CLASSIFICATION_TYPE":"U","NORAD_CAT_ID":66038,"ELEMENT_SET_NO":999,"REV_AT_EPOCH":2049,"BSTAR":7.0004182e-5,"MEAN_MOTION_DOT":5.7e-7,"MEAN_MOTION_DDOT":0},{"OBJECT_NAME":"QIANFAN-97","OBJECT_ID":"2025-233G","EPOCH":"2026-03-15T05:48:48.520800","MEAN_MOTION":13.51004707,"ECCENTRICITY":0.00020921,"INCLINATION":88.9951,"RA_OF_ASC_NODE":52.6754,"ARG_OF_PERICENTER":90.9606,"MEAN_ANOMALY":269.1785,"EPHEMERIS_TYPE":0,"CLASSIFICATION_TYPE":"U","NORAD_CAT_ID":66039,"ELEMENT_SET_NO":999,"REV_AT_EPOCH":2050,"BSTAR":4.418859e-5,"MEAN_MOTION_DOT":4.1e-7,"MEAN_MOTION_DDOT":0},{"OBJECT_NAME":"QIANFAN-98","OBJECT_ID":"2025-233H","EPOCH":"2026-03-15T06:00:34.581600","MEAN_MOTION":13.51005409,"ECCENTRICITY":0.00024561,"INCLINATION":88.994,"RA_OF_ASC_NODE":52.4157,"ARG_OF_PERICENTER":79.5699,"MEAN_ANOMALY":280.5729,"EPHEMERIS_TYPE":0,"CLASSIFICATION_TYPE":"U","NORAD_CAT_ID":66040,"ELEMENT_SET_NO":999,"REV_AT_EPOCH":2064,"BSTAR":6.8467715e-5,"MEAN_MOTION_DOT":5.6e-7,"MEAN_MOTION_DDOT":0},{"OBJECT_NAME":"QIANFAN-99","OBJECT_ID":"2025-233J","EPOCH":"2026-03-15T06:06:34.096320","MEAN_MOTION":13.51005507,"ECCENTRICITY":0.00024,"INCLINATION":88.9951,"RA_OF_ASC_NODE":52.6776,"ARG_OF_PERICENTER":84.0506,"MEAN_ANOMALY":276.0918,"EPHEMERIS_TYPE":0,"CLASSIFICATION_TYPE":"U","NORAD_CAT_ID":66041,"ELEMENT_SET_NO":999,"REV_AT_EPOCH":2050,"BSTAR":7.6574705e-5,"MEAN_MOTION_DOT":6.1e-7,"MEAN_MOTION_DDOT":0},{"OBJECT_NAME":"QIANFAN-100","OBJECT_ID":"2025-233K","EPOCH":"2026-03-15T05:54:40.126464","MEAN_MOTION":13.51006396,"ECCENTRICITY":0.00020602,"INCLINATION":88.9962,"RA_OF_ASC_NODE":52.5949,"ARG_OF_PERICENTER":90.545,"MEAN_ANOMALY":269.5938,"EPHEMERIS_TYPE":0,"CLASSIFICATION_TYPE":"U","NORAD_CAT_ID":66042,"ELEMENT_SET_NO":999,"REV_AT_EPOCH":2055,"BSTAR":5.9616092e-5,"MEAN_MOTION_DOT":5.1e-7,"MEAN_MOTION_DDOT":0},{"OBJECT_NAME":"QIANFAN-101","OBJECT_ID":"2025-233L","EPOCH":"2026-03-15T05:54:39.694464","MEAN_MOTION":14.26747273,"ECCENTRICITY":0.00173237,"INCLINATION":88.9952,"RA_OF_ASC_NODE":51.3433,"ARG_OF_PERICENTER":91.4006,"MEAN_ANOMALY":268.9173,"EPHEMERIS_TYPE":0,"CLASSIFICATION_TYPE":"U","NORAD_CAT_ID":66043,"ELEMENT_SET_NO":999,"REV_AT_EPOCH":2123,"BSTAR":0.00024208707,"MEAN_MOTION_DOT":6.01e-6,"MEAN_MOTION_DDOT":0},{"OBJECT_NAME":"QIANFAN-102","OBJECT_ID":"2025-233M","EPOCH":"2026-03-15T06:24:14.497344","MEAN_MOTION":13.50993296,"ECCENTRICITY":0.0002183,"INCLINATION":88.9949,"RA_OF_ASC_NODE":52.5882,"ARG_OF_PERICENTER":86.0672,"MEAN_ANOMALY":274.0729,"EPHEMERIS_TYPE":0,"CLASSIFICATION_TYPE":"U","NORAD_CAT_ID":66044,"ELEMENT_SET_NO":999,"REV_AT_EPOCH":2055,"BSTAR":8.5219434e-5,"MEAN_MOTION_DOT":6.7e-7,"MEAN_MOTION_DDOT":0}]
