QIANFAN-86              
1 63172U 25046P   26074.28365829  .00000132  00000+0  18541-3 0  9995
2 63172  88.9745 310.2251 0009572 218.7182 141.3284 13.51004288 60043
QIANFAN-87              
1 63173U 25046Q   26074.25487846  .00000135  00000+0  19049-3 0  9994
2 63173  88.9742 310.3361 0010351 213.5998 146.4498 13.51012781 59979
QIANFAN-88              
1 63174U 25046R   26074.27128444  .00000138  00000+0  19480-3 0  9995
2 63174  88.9744 310.2913 0010577 223.1043 136.9281 13.51000926 60000
QIANFAN-89              
1 63175U 25046S   26074.23434078  .00000139  00000+0  19608-3 0  9998
2 63175  88.9745 310.4843 0015238 214.1817 145.8354 13.51011413 59892
QIANFAN-90              
1 63176U 25046T   26074.26317348  .00000151  00000+0  21565-3 0  9991
2 63176  88.9744 310.4538 0012222 211.3013 148.7412 13.51011719 59919
QIANFAN-91              
1 66033U 25233A   26074.22167953  .00000062  00000+0  77266-4 0  9996
2 66033  88.9945  52.6847 0002102  91.2525 268.8867 13.51005235 20499
QIANFAN-92              
1 66034U 25233B   26074.22983688  .00000048  00000+0  55550-4 0  9994
2 66034  88.9929  52.6710 0002007  85.6081 274.5300 13.51006428 20490
QIANFAN-93              
1 66035U 25233C   26074.23807622  .00000045  00000+0  50339-4 0  9996
2 66035  88.9956  52.6966 0002053  89.8317 270.3070 13.51005637 20492
QIANFAN-94              
1 66036U 25233D   26074.22566652  .00000052  00000+0  62433-4 0  9997
2 66036  88.9952  52.6044 0002138  86.0814 274.0582 13.50992559 20543
QIANFAN-95              
1 66037U 25233E   26074.23375566  .00000046  00000+0  52256-4 0  9996
2 66037  88.9950  52.1496 0002229  90.3455 269.7951 13.51015984 20795
QIANFAN-96              
1 66038U 25233F   26074.25869642  .00000057  00000+0  70004-4 0  9995
2 66038  88.9947  52.6927 0002138  92.8486 267.2910 13.51005343 20499
QIANFAN-97              
1 66039U 25233G   26074.24222825  .00000041  00000+0  44189-4 0  9999
2 66039  88.9951  52.6754 0002092  90.9606 269.1785 13.51004707 20501
QIANFAN-98              
1 66040U 25233H   26074.25040025  .00000056  00000+0  68468-4 0  9994
2 66040  88.9940  52.4157 0002456  79.5699 280.5729 13.51005409 20645
QIANFAN-99              
1 66041U 25233J   26074.25456130  .00000061  00000+0  76575-4 0  9997
2 66041  88.9951  52.6776 0002400  84.0506 276.0918 13.51005507 20508
QIANFAN-100             
1 66042U 25233K   26074.24629776  .00000051  00000+0  59616-4 0  9991
2 66042  88.9962  52.5949 0002060  90.5450 269.5938 13.51006396 20555
QIANFAN-101             
1 66043U 25233L   26074.24629276  .00000601  00000+0  24209-3 0  9997
2 66043  88.9952  51.3433 0017323  91.4006 268.9173 14.26747273 21234
QIANFAN-102             
1 66044U 25233M   26074.26683446  .00000067  00000+0  85219-4 0  9994
2 66044  88.9949  52.5882 0002183  86.0672 274.0729 13.50993296 20552
